GLOBALSTAR M094         
1 39074U 13005C   24361.23886264 -.00000091  00000+0  71683-4 0  9996
2 39074  51.9979 348.6935 0000023 248.9923 111.0942 12.62266401550531
GLOBALSTAR M096         
1 39075U 13005D   24361.25207195 -.00000091  00000+0  70369-4 0  9999
2 39075  52.0090  37.0329 0000426 168.5432 191.5445 12.62266055549458
GLOBALSTAR M078         
1 39076U 13005E   24361.30428568 -.00000094  00000+0  56755-4 0  9991
2 39076  51.9863 121.6140 0001614 136.7065 223.3928 12.62267891548082
GLOBALSTAR M095         
1 39077U 13005F   24361.25190456 -.00000094  00000+0  53301-4 0  9992
2 39077  51.9791 119.0590 0001194 143.5233 216.5715 12.62269870547939
GLOBALSTAR M087         
1 52888U 22064A   24361.13587172 -.00000083  00000+0  11388-3 0  9990
2 52888  51.9779 263.7638 0021294 357.3320   2.7442 12.88917949123134
